{
    "links": {
        "self": "http://www.neowsapp.com/rest/v1/neo/54087747?api_key=iIulBulltgU6a56xZRHN4H3l9WmuAYTsLGpBGhQ2"
    },
    "id": "54087747",
    "neo_reference_id": "54087747",
    "name": "(2020 VE3)",
    "designation": "2020 VE3",
    "nasa_jpl_url": "http://ssd.jpl.nasa.gov/sbdb.cgi?sstr=54087747",
    "absolute_magnitude_h": 23.386,
    "estimated_diameter": {
        "kilometers": {
            "estimated_diameter_min": 0.0558926855,
            "estimated_diameter_max": 0.1249798442
        },
        "meters": {
            "estimated_diameter_min": 55.8926854685,
            "estimated_diameter_max": 124.9798441525
        },
        "miles": {
            "estimated_diameter_min": 0.0347300939,
            "estimated_diameter_max": 0.0776588507
        },
        "feet": {
            "estimated_diameter_min": 183.3749581924,
            "estimated_diameter_max": 410.0388718893
        }
    },
    "is_potentially_hazardous_asteroid": false,
    "close_approach_data": [
        {
            "close_approach_date": "2016-12-12",
            "close_approach_date_full": "2016-Dec-12 20:16",
            "epoch_date_close_approach": 1481573760000,
            "relative_velocity": {
                "kilometers_per_second": "1.7875211247",
                "kilometers_per_hour": "6435.0760487712",
                "miles_per_hour": "3998.506003749"
            },
            "miss_distance": {
                "astronomical": "0.4106851655",
                "lunar": "159.7565293795",
                "kilometers": "61437625.999397485",
                "miles": "38175570.571295893"
            },
            "orbiting_body": "Earth"
        },
        {
            "close_approach_date": "2018-12-02",
            "close_approach_date_full": "2018-Dec-02 07:37",
            "epoch_date_close_approach": 1543736220000,
            "relative_velocity": {
                "kilometers_per_second": "1.8373955201",
                "kilometers_per_hour": "6614.6238722444",
                "miles_per_hour": "4110.0700388399"
            },
            "miss_distance": {
                "astronomical": "1.5815368003",
                "lunar": "615.2178153167",
                "kilometers": "236594536.651495361",
                "miles": "147013027.9905475418"
            },
            "orbiting_body": "Juptr"
        },
        {
            "close_approach_date": "2020-11-23",
            "close_approach_date_full": "2020-Nov-23 11:35",
            "epoch_date_close_approach": 1606131300000,
            "relative_velocity": {
                "kilometers_per_second": "2.3632734236",
                "kilometers_per_hour": "8507.7843249761",
                "miles_per_hour": "5286.4063212608"
            },
            "miss_distance": {
                "astronomical": "0.2979656844",
                "lunar": "115.9086512316",
                "kilometers": "44575031.719332228",
                "miles": "27697640.3537436264"
            },
            "orbiting_body": "Earth"
        },
        {
            "close_approach_date": "2024-11-12",
            "close_approach_date_full": "2024-Nov-12 20:08",
            "epoch_date_close_approach": 1731442080000,
            "relative_velocity": {
                "kilometers_per_second": "2.2410792005",
                "kilometers_per_hour": "8067.8851218876",
                "miles_per_hour": "5013.0700636529"
            },
            "miss_distance": {
                "astronomical": "0.3732068152",
                "lunar": "145.1774511128",
                "kilometers": "55830944.623403624",
                "miles": "34691740.3116090512"
            },
            "orbiting_body": "Earth"
        }
    ],
    "orbital_data": {
        "orbit_id": "5",
        "orbit_determination_date": "2020-12-07 05:26:51",
        "first_observation_date": "2020-10-23",
        "last_observation_date": "2020-12-06",
        "data_arc_in_days": 44,
        "observations_used": 41,
        "orbit_uncertainty": "6",
        "minimum_orbit_intersection": ".294369",
        "jupiter_tisserand_invariant": "3.265",
        "epoch_osculation": "2459000.5",
        "eccentricity": ".4948936494844126",
        "semi_major_axis": "2.53383201615582",
        "inclination": "2.516170479810381",
        "ascending_node_longitude": "38.98922929663025",
        "orbital_period": "1473.211688520709",
        "perihelion_distance": "1.279854642500019",
        "perihelion_argument": "26.92256351675076",
        "aphelion_distance": "3.78780938981162",
        "perihelion_time": "2459184.775449491041",
        "mean_anomaly": "314.9697016839531",
        "mean_motion": ".2443640671636848",
        "equinox": "J2000",
        "orbit_class": {
            "orbit_class_type": "AMO",
            "orbit_class_description": "Near-Earth asteroid orbits similar to that of 1221 Amor",
            "orbit_class_range": "1.017 AU < q (perihelion) < 1.3 AU"
        }
    },
    "is_sentry_object": false
}